IRIDIUM 39              
1 25042U 97069D   25351.77807023  .00000600  00000+0  15072-3 0  9997
2 25042  86.3920 132.4707 0019364  57.1756 303.1309 14.49512855475550
IRIDIUM 38              
1 25043U 97069E   25351.70853927  .00000424  00000+0  13272-3 0  9999
2 25043  86.3972 156.0182 0001820 150.5423 209.5878 14.38318648472339
IRIDIUM 42              
1 25077U 97077A   25351.87118881  .00000391  00000+0  12640-3 0  9997
2 25077  86.3978 162.3436 0001472 108.7127 251.4230 14.36536524467563
IRIDIUM 44              
1 25078U 97077B   25351.81576997  .00000324  00000+0  95900-4 0  9995
2 25078  86.3969 143.8134 0003518 116.7210 243.4350 14.40435999470138
IRIDIUM 45              
1 25104U 97082A   25351.90295646  .00029125  00000+0  81889-3 0  9990
2 25104  86.3538 318.1330 0097838   1.6699 358.4856 15.31588453480062
IRIDIUM 24              
1 25105U 97082B   25351.75856013  .00000423  00000+0  12198-3 0  9992
2 25105  86.3907   2.4224 0011166 180.1299 179.9900 14.42332569469673
IRIDIUM 51              
1 25262U 98018A   25351.44838995  .00081730  00000+0  84629-3 0  9999
2 25262  86.3722 323.8245 0046341 253.6222 105.9947 15.63042569475387
IRIDIUM 57              
1 25273U 98019B   25351.71936436  .00000298  00000+0  95691-4 0  9993
2 25273  86.3955  68.3015 0002135  98.3732 261.7707 14.36055112451124
